STARLINK-36034          
1 66609U 25270X   25344.91670139 -.00115350  00000+0 -19864-2 0  9993
2 66609  42.9997 203.3000 0001943 252.7513  66.2574 15.50620362  3945
STARLINK-35680          
1 66610U 25270Y   25344.91670139 -.00106567  00000+0 -18331-2 0  9993
2 66610  42.9997 203.2948 0001924 256.2640  64.6651 15.50614106  4214
STARLINK-35583          
1 66611U 25270Z   25344.91670139 -.00108723  00000+0 -18708-2 0  9998
2 66611  42.9998 203.2898 0001939 254.7531  68.0944 15.50614575  4211
STARLINK-36039          
1 66612U 25270AA  25344.91670139 -.00047427  00000+0 -80704-3 0  9998
2 66612  42.9996 203.2848 0002044 253.1456  71.6126 15.50592957  4101
STARLINK-36037          
1 66613U 25270AB  25344.91670139 -.00101529  00000+0 -17452-2 0  9992
2 66613  42.9997 203.2799 0001957 254.9978  71.6844 15.50610478  4104
STARLINK-36040          
1 66614U 25270AC  25344.91670139 -.00113250  00000+0 -19497-2 0  9998
2 66614  42.9995 203.2700 0001838 256.0679  74.4435 15.50619001  3943
STARLINK-35988          
1 66615U 25270AD  25344.91670139  .00080501  00000+0  13676-2 0  9992
2 66615  42.9997 203.2756 0001659 237.9832  90.5959 15.50502396  3945
STARLINK-35391          
1 66616U 25270AE  25344.91670139 -.00116233  00000+0 -20018-2 0  9995
2 66616  42.9996 203.2656 0001890 253.7883  78.6386 15.50621502  4216
STARLINK-35940          
1 66617U 25271A   25344.91670139 -.02059353  00000+0 -30360-1 0  9998
2 66617  53.1600 196.0093 0000883  95.1837 229.8481 15.57891220  3954
STARLINK-35970          
1 66618U 25271B   25344.91670139 -.02055952  00000+0 -30306-1 0  9990
2 66618  53.1599 195.8967 0000939  88.9955 289.3625 15.57889020  3958
STARLINK-35951          
1 66619U 25271C   25344.91670139 -.02065105  00000+0 -30452-1 0  9994
2 66619  53.1603 195.9921 0000849  93.1103 239.5897 15.57893985  3952
STARLINK-35936          
1 66620U 25271D   25344.91670139 -.02058453  00000+0 -30348-1 0  9998
2 66620  53.1602 196.0052 0000838  86.4123 240.5397 15.57889245  3956
