CCSDS_OMM_VERS = 2.0
CREATION_DATE  = 
ORIGINATOR     = 

OBJECT_NAME    = STARLINK-36034
OBJECT_ID      = 2025-270X
CENTER_NAME    = EARTH
REF_FRAME      = TEME
TIME_SYSTEM    = UTC
MEAN_ELEMENT_THEORY = SGP/SGP4

EPOCH          = 2025-12-10T22:00:03.000096
MEAN_MOTION    = 15.50620362
ECCENTRICITY   = .00019432
INCLINATION    = 42.9997
RA_OF_ASC_NODE = 203.3000
ARG_OF_PERICENTER = 252.7513
MEAN_ANOMALY   = 66.2574

EPHEMERIS_TYPE = 0
CLASSIFICATION_TYPE = U
NORAD_CAT_ID   = 66609
ELEMENT_SET_NO = 999
REV_AT_EPOCH   = 394
BSTAR          = -.19864108E-2
MEAN_MOTION_DOT = -.11535E-2
MEAN_MOTION_DDOT = 0

CCSDS_OMM_VERS = 2.0
CREATION_DATE  = 
ORIGINATOR     = 

OBJECT_NAME    = STARLINK-35680
OBJECT_ID      = 2025-270Y
CENTER_NAME    = EARTH
REF_FRAME      = TEME
TIME_SYSTEM    = UTC
MEAN_ELEMENT_THEORY = SGP/SGP4

EPOCH          = 2025-12-10T22:00:03.000096
MEAN_MOTION    = 15.50614106
ECCENTRICITY   = .00019242
INCLINATION    = 42.9997
RA_OF_ASC_NODE = 203.2948
ARG_OF_PERICENTER = 256.2640
MEAN_ANOMALY   = 64.6651

EPHEMERIS_TYPE = 0
CLASSIFICATION_TYPE = U
NORAD_CAT_ID   = 66610
ELEMENT_SET_NO = 999
REV_AT_EPOCH   = 421
BSTAR          = -.18330723E-2
MEAN_MOTION_DOT = -.106567E-2
MEAN_MOTION_DDOT = 0

CCSDS_OMM_VERS = 2.0
CREATION_DATE  = 
ORIGINATOR     = 

OBJECT_NAME    = STARLINK-35583
OBJECT_ID      = 2025-270Z
CENTER_NAME    = EARTH
REF_FRAME      = TEME
TIME_SYSTEM    = UTC
MEAN_ELEMENT_THEORY = SGP/SGP4

EPOCH          = 2025-12-10T22:00:03.000096
MEAN_MOTION    = 15.50614575
ECCENTRICITY   = .00019398
INCLINATION    = 42.9998
RA_OF_ASC_NODE = 203.2898
ARG_OF_PERICENTER = 254.7531
MEAN_ANOMALY   = 68.0944

EPHEMERIS_TYPE = 0
CLASSIFICATION_TYPE = U
NORAD_CAT_ID   = 66611
ELEMENT_SET_NO = 999
REV_AT_EPOCH   = 421
BSTAR          = -.18707538E-2
MEAN_MOTION_DOT = -.108723E-2
MEAN_MOTION_DDOT = 0

CCSDS_OMM_VERS = 2.0
CREATION_DATE  = 
ORIGINATOR     = 

OBJECT_NAME    = STARLINK-36039
OBJECT_ID      = 2025-270AA
CENTER_NAME    = EARTH
REF_FRAME      = TEME
TIME_SYSTEM    = UTC
MEAN_ELEMENT_THEORY = SGP/SGP4

EPOCH          = 2025-12-10T22:00:03.000096
MEAN_MOTION    = 15.50592957
ECCENTRICITY   = .00020444
INCLINATION    = 42.9996
RA_OF_ASC_NODE = 203.2848
ARG_OF_PERICENTER = 253.1456
MEAN_ANOMALY   = 71.6126

EPHEMERIS_TYPE = 0
CLASSIFICATION_TYPE = U
NORAD_CAT_ID   = 66612
ELEMENT_SET_NO = 999
REV_AT_EPOCH   = 410
BSTAR          = -.80703881E-3
MEAN_MOTION_DOT = -.47427E-3
MEAN_MOTION_DDOT = 0

CCSDS_OMM_VERS = 2.0
CREATION_DATE  = 
ORIGINATOR     = 

OBJECT_NAME    = STARLINK-36037
OBJECT_ID      = 2025-270AB
CENTER_NAME    = EARTH
REF_FRAME      = TEME
TIME_SYSTEM    = UTC
MEAN_ELEMENT_THEORY = SGP/SGP4

EPOCH          = 2025-12-10T22:00:03.000096
MEAN_MOTION    = 15.50610478
ECCENTRICITY   = .00019577
INCLINATION    = 42.9997
RA_OF_ASC_NODE = 203.2799
ARG_OF_PERICENTER = 254.9978
MEAN_ANOMALY   = 71.6844

EPHEMERIS_TYPE = 0
CLASSIFICATION_TYPE = U
NORAD_CAT_ID   = 66613
ELEMENT_SET_NO = 999
REV_AT_EPOCH   = 410
BSTAR          = -.1745236E-2
MEAN_MOTION_DOT = -.101529E-2
MEAN_MOTION_DDOT = 0

CCSDS_OMM_VERS = 2.0
CREATION_DATE  = 
ORIGINATOR     = 

OBJECT_NAME    = STARLINK-36040
OBJECT_ID      = 2025-270AC
CENTER_NAME    = EARTH
REF_FRAME      = TEME
TIME_SYSTEM    = UTC
MEAN_ELEMENT_THEORY = SGP/SGP4

EPOCH          = 2025-12-10T22:00:03.000096
MEAN_MOTION    = 15.50619001
ECCENTRICITY   = .0001838
INCLINATION    = 42.9995
RA_OF_ASC_NODE = 203.2700
ARG_OF_PERICENTER = 256.0679
MEAN_ANOMALY   = 74.4435

EPHEMERIS_TYPE = 0
CLASSIFICATION_TYPE = U
NORAD_CAT_ID   = 66614
ELEMENT_SET_NO = 999
REV_AT_EPOCH   = 394
BSTAR          = -.19497292E-2
MEAN_MOTION_DOT = -.11325E-2
MEAN_MOTION_DDOT = 0

CCSDS_OMM_VERS = 2.0
CREATION_DATE  = 
ORIGINATOR     = 

OBJECT_NAME    = STARLINK-35988
OBJECT_ID      = 2025-270AD
CENTER_NAME    = EARTH
REF_FRAME      = TEME
TIME_SYSTEM    = UTC
MEAN_ELEMENT_THEORY = SGP/SGP4

EPOCH          = 2025-12-10T22:00:03.000096
MEAN_MOTION    = 15.50502396
ECCENTRICITY   = .00016597
INCLINATION    = 42.9997
RA_OF_ASC_NODE = 203.2756
ARG_OF_PERICENTER = 237.9832
MEAN_ANOMALY   = 90.5959

EPHEMERIS_TYPE = 0
CLASSIFICATION_TYPE = U
NORAD_CAT_ID   = 66615
ELEMENT_SET_NO = 999
REV_AT_EPOCH   = 394
BSTAR          = .1367642E-2
MEAN_MOTION_DOT = .80501E-3
MEAN_MOTION_DDOT = 0

CCSDS_OMM_VERS = 2.0
CREATION_DATE  = 
ORIGINATOR     = 

OBJECT_NAME    = STARLINK-35391
OBJECT_ID      = 2025-270AE
CENTER_NAME    = EARTH
REF_FRAME      = TEME
TIME_SYSTEM    = UTC
MEAN_ELEMENT_THEORY = SGP/SGP4

EPOCH          = 2025-12-10T22:00:03.000096
MEAN_MOTION    = 15.50621502
ECCENTRICITY   = .00018903
INCLINATION    = 42.9996
RA_OF_ASC_NODE = 203.2656
ARG_OF_PERICENTER = 253.7883
MEAN_ANOMALY   = 78.6386

EPHEMERIS_TYPE = 0
CLASSIFICATION_TYPE = U
NORAD_CAT_ID   = 66616
ELEMENT_SET_NO = 999
REV_AT_EPOCH   = 421
BSTAR          = -.20018218E-2
MEAN_MOTION_DOT = -.116233E-2
MEAN_MOTION_DDOT = 0

CCSDS_OMM_VERS = 2.0
CREATION_DATE  = 
ORIGINATOR     = 

OBJECT_NAME    = STARLINK-35940
OBJECT_ID      = 2025-271A
CENTER_NAME    = EARTH
REF_FRAME      = TEME
TIME_SYSTEM    = UTC
MEAN_ELEMENT_THEORY = SGP/SGP4

EPOCH          = 2025-12-10T22:00:03.000096
MEAN_MOTION    = 15.57891220
ECCENTRICITY   = .00008833
INCLINATION    = 53.1600
RA_OF_ASC_NODE = 196.0093
ARG_OF_PERICENTER = 95.1837
MEAN_ANOMALY   = 229.8481

EPHEMERIS_TYPE = 0
CLASSIFICATION_TYPE = U
NORAD_CAT_ID   = 66617
ELEMENT_SET_NO = 999
REV_AT_EPOCH   = 395
BSTAR          = -.30359792E-1
MEAN_MOTION_DOT = -.2059353E-1
MEAN_MOTION_DDOT = 0

CCSDS_OMM_VERS = 2.0
CREATION_DATE  = 
ORIGINATOR     = 

OBJECT_NAME    = STARLINK-35970
OBJECT_ID      = 2025-271B
CENTER_NAME    = EARTH
REF_FRAME      = TEME
TIME_SYSTEM    = UTC
MEAN_ELEMENT_THEORY = SGP/SGP4

EPOCH          = 2025-12-10T22:00:03.000096
MEAN_MOTION    = 15.57889020
ECCENTRICITY   = .0000939
INCLINATION    = 53.1599
RA_OF_ASC_NODE = 195.8967
ARG_OF_PERICENTER = 88.9955
MEAN_ANOMALY   = 289.3625

EPHEMERIS_TYPE = 0
CLASSIFICATION_TYPE = U
NORAD_CAT_ID   = 66618
ELEMENT_SET_NO = 999
REV_AT_EPOCH   = 395
BSTAR          = -.30305612E-1
MEAN_MOTION_DOT = -.2055952E-1
MEAN_MOTION_DDOT = 0

CCSDS_OMM_VERS = 2.0
CREATION_DATE  = 
ORIGINATOR     = 

OBJECT_NAME    = STARLINK-35951
OBJECT_ID      = 2025-271C
CENTER_NAME    = EARTH
REF_FRAME      = TEME
TIME_SYSTEM    = UTC
MEAN_ELEMENT_THEORY = SGP/SGP4

EPOCH          = 2025-12-10T22:00:03.000096
MEAN_MOTION    = 15.57893985
ECCENTRICITY   = .00008496
INCLINATION    = 53.1603
RA_OF_ASC_NODE = 195.9921
ARG_OF_PERICENTER = 93.1103
MEAN_ANOMALY   = 239.5897

EPHEMERIS_TYPE = 0
CLASSIFICATION_TYPE = U
NORAD_CAT_ID   = 66619
ELEMENT_SET_NO = 999
REV_AT_EPOCH   = 395
BSTAR          = -.3045195E-1
MEAN_MOTION_DOT = -.2065105E-1
MEAN_MOTION_DDOT = 0

CCSDS_OMM_VERS = 2.0
CREATION_DATE  = 
ORIGINATOR     = 

OBJECT_NAME    = STARLINK-35936
OBJECT_ID      = 2025-271D
CENTER_NAME    = EARTH
REF_FRAME      = TEME
TIME_SYSTEM    = UTC
MEAN_ELEMENT_THEORY = SGP/SGP4

EPOCH          = 2025-12-10T22:00:03.000096
MEAN_MOTION    = 15.57889245
ECCENTRICITY   = .00008385
INCLINATION    = 53.1602
RA_OF_ASC_NODE = 196.0052
ARG_OF_PERICENTER = 86.4123
MEAN_ANOMALY   = 240.5397

EPHEMERIS_TYPE = 0
CLASSIFICATION_TYPE = U
NORAD_CAT_ID   = 66620
ELEMENT_SET_NO = 999
REV_AT_EPOCH   = 395
BSTAR          = -.30347656E-1
MEAN_MOTION_DOT = -.2058453E-1
MEAN_MOTION_DDOT = 0

